{
  "type": "FeatureCollection",
  "name": "Kilifi County Marine Fishing Zones",
  "description": "Official marine fishing zone boundaries for Kilifi County, Kenya. Derived from Kenya Wildlife Service (KWS), Kenya Marine and Fisheries Research Institute (KMFRI), and County Government of Kilifi fisheries department data.",
  "metadata": {
    "data_sources": [
      "Kenya Wildlife Service (KWS) — Marine Protected Areas",
      "Kenya Marine and Fisheries Research Institute (KMFRI) — Fishing Zones",
      "County Government of Kilifi — Fisheries Department"
    ],
    "coordinate_system": "WGS84 (EPSG:4326)",
    "last_updated": "2026-07-20"
  },
  "features": [
    {
      "type": "Feature",
      "id": "kilifi_mp_001",
      "properties": {
        "name": "Watamu Marine National Park",
        "zone_type": "no_take",
        "designation": "National Park — Strict Protection",
        "area_km2": 142.8,
        "zone_status": "open",
        "status": "active",
        "managing_authority": "Kenya Wildlife Service (KWS)",
        "allowed_activities": ["Research", "Guided diving (with permit)", "Snorkeling (designated areas)"],
        "restrictions": ["No fishing of any kind", "No anchoring on reefs", "No collection of marine specimens"],
        "licensing_requirements": ["KWS entry permit", "Research permit (if applicable)"],
        "established_date": "1968-01-01"
      },
      "geometry": {
        "type": "Polygon",
        "coordinates": [[
          [39.9750, -3.3500],
          [39.9900, -3.3450],
          [40.0050, -3.3380],
          [40.0200, -3.3300],
          [40.0350, -3.3200],
          [40.0450, -3.3100],
          [40.0500, -3.2980],
          [40.0550, -3.2850],
          [40.0600, -3.2700],
          [40.0580, -3.2550],
          [40.0500, -3.2400],
          [40.0400, -3.2280],
          [40.0250, -3.2180],
          [40.0080, -3.2100],
          [39.9900, -3.2050],
          [39.9720, -3.2020],
          [39.9550, -3.2000],
          [39.9400, -3.2010],
          [39.9280, -3.2040],
          [39.9180, -3.2100],
          [39.9100, -3.2200],
          [39.9050, -3.2320],
          [39.9030, -3.2460],
          [39.9040, -3.2620],
          [39.9080, -3.2780],
          [39.9140, -3.2920],
          [39.9220, -3.3060],
          [39.9320, -3.3200],
          [39.9440, -3.3320],
          [39.9580, -3.3430],
          [39.9750, -3.3500]
        ]]
      }
    },
    {
      "type": "Feature",
      "id": "kilifi_mp_002",
      "properties": {
        "name": "Malindi Marine National Park",
        "zone_type": "no_take",
        "designation": "National Park — Strict Protection",
        "area_km2": 231.0,
        "zone_status": "open",
        "status": "active",
        "managing_authority": "Kenya Wildlife Service (KWS)",
        "allowed_activities": ["Research", "Guided diving", "Snorkeling (designated areas)"],
        "restrictions": ["No fishing", "No coral collection", "No disturbance of marine life"],
        "licensing_requirements": ["KWS entry permit", "Research permit (if applicable)"],
        "established_date": "1968-01-01"
      },
      "geometry": {
        "type": "Polygon",
        "coordinates": [[
          [40.1000, -3.1900],
          [40.1200, -3.1800],
          [40.1400, -3.1650],
          [40.1580, -3.1480],
          [40.1720, -3.1300],
          [40.1830, -3.1100],
          [40.1900, -3.0880],
          [40.1930, -3.0650],
          [40.1900, -3.0420],
          [40.1830, -3.0200],
          [40.1720, -3.0000],
          [40.1580, -2.9830],
          [40.1400, -2.9700],
          [40.1180, -2.9600],
          [40.0950, -2.9550],
          [40.0720, -2.9530],
          [40.0500, -2.9550],
          [40.0320, -2.9620],
          [40.0180, -2.9730],
          [40.0080, -2.9880],
          [40.0020, -3.0060],
          [40.0000, -3.0250],
          [40.0020, -3.0440],
          [40.0080, -3.0620],
          [40.0160, -3.0800],
          [40.0280, -3.0980],
          [40.0420, -3.1140],
          [40.0580, -3.1300],
          [40.0760, -3.1460],
          [40.0940, -3.1620],
          [40.1000, -3.1900]
        ]]
      }
    },
    {
      "type": "Feature",
      "id": "kilifi_mp_003",
      "properties": {
        "name": "Watamu Marine Reserve",
        "zone_type": "restricted_use",
        "designation": "Marine Reserve — Controlled Use",
        "area_km2": 176.0,
        "zone_status": "open",
        "status": "active",
        "managing_authority": "Kenya Wildlife Service (KWS)",
        "allowed_activities": ["Spearfishing (with permit)", "Recreational fishing (with license)", "Diving", "Boating"],
        "restrictions": ["No bottom trawling", "No cyanide fishing", "No anchoring on coral"],
        "licensing_requirements": ["KWS permit", "County fishing license"],
        "established_date": "1968-01-01"
      },
      "geometry": {
        "type": "Polygon",
        "coordinates": [[
          [39.8800, -3.3550],
          [39.8950, -3.3480],
          [39.9100, -3.3400],
          [39.9250, -3.3300],
          [39.9380, -3.3180],
          [39.9480, -3.3050],
          [39.9560, -3.2900],
          [39.9620, -3.2740],
          [39.9650, -3.2570],
          [39.9640, -3.2400],
          [39.9600, -3.2240],
          [39.9520, -3.2100],
          [39.9420, -3.1980],
          [39.9300, -3.1880],
          [39.9150, -3.1800],
          [39.8980, -3.1750],
          [39.8800, -3.1730],
          [39.8630, -3.1750],
          [39.8480, -3.1800],
          [39.8360, -3.1880],
          [39.8270, -3.1990],
          [39.8210, -3.2120],
          [39.8180, -3.2270],
          [39.8190, -3.2430],
          [39.8230, -3.2590],
          [39.8300, -3.2740],
          [39.8400, -3.2880],
          [39.8520, -3.3020],
          [39.8660, -3.3160],
          [39.8800, -3.3550]
        ]]
      }
    },
    {
      "type": "Feature",
      "id": "kilifi_mp_004",
      "properties": {
        "name": "Malindi Marine Reserve",
        "zone_type": "restricted_use",
        "designation": "Marine Reserve — Controlled Use",
        "area_km2": 66.4,
        "zone_status": "seasonal_closure",
        "status": "active",
        "managing_authority": "Kenya Wildlife Service (KWS)",
        "allowed_activities": ["Artisanal fishing (outside closure season)", "Recreational diving", "Boating"],
        "restrictions": ["No fishing during spawning season (March–May)", "No destructive gear", "No coral damage"],
        "licensing_requirements": ["KWS permit", "County fishing license"],
        "established_date": "1968-01-01"
      },
      "geometry": {
        "type": "Polygon",
        "coordinates": [[
          [40.0200, -3.2050],
          [40.0350, -3.1950],
          [40.0500, -3.1830],
          [40.0630, -3.1700],
          [40.0730, -3.1550],
          [40.0800, -3.1380],
          [40.0830, -3.1200],
          [40.0820, -3.1020],
          [40.0780, -3.0850],
          [40.0700, -3.0700],
          [40.0600, -3.0570],
          [40.0470, -3.0470],
          [40.0320, -3.0400],
          [40.0150, -3.0360],
          [39.9980, -3.0350],
          [39.9820, -3.0380],
          [39.9680, -3.0440],
          [39.9570, -3.0530],
          [39.9490, -3.0650],
          [39.9440, -3.0800],
          [39.9420, -3.0960],
          [39.9430, -3.1120],
          [39.9470, -3.1280],
          [39.9540, -3.1440],
          [39.9630, -3.1580],
          [39.9750, -3.1720],
          [39.9890, -3.1840],
          [40.0040, -3.1950],
          [40.0200, -3.2050]
        ]]
      }
    },
    {
      "type": "Feature",
      "id": "kilifi_mp_005",
      "properties": {
        "name": "Mida Creek Conservation Zone",
        "zone_type": "mangrove_reserve",
        "designation": "Mangrove Ecosystem Conservation Area",
        "area_km2": 32.5,
        "zone_status": "open",
        "status": "active",
        "managing_authority": "Kenya Forest Service (KFS) / KWS",
        "allowed_activities": ["Mangrove research", "Eco-tourism", "Traditional crab collection (regulated)"],
        "restrictions": ["No mangrove cutting", "No mangrove charcoal production", "No illegal logging"],
        "licensing_requirements": ["KFS permit", "County conservation permit"],
        "established_date": "1995-06-15"
      },
      "geometry": {
        "type": "Polygon",
        "coordinates": [[
          [39.8200, -3.2800],
          [39.8320, -3.2700],
          [39.8460, -3.2620],
          [39.8600, -3.2560],
          [39.8740, -3.2520],
          [39.8880, -3.2500],
          [39.9020, -3.2500],
          [39.9150, -3.2520],
          [39.9260, -3.2560],
          [39.9350, -3.2620],
          [39.9420, -3.2700],
          [39.9460, -3.2800],
          [39.9480, -3.2920],
          [39.9470, -3.3040],
          [39.9430, -3.3160],
          [39.9360, -3.3260],
          [39.9270, -3.3340],
          [39.9150, -3.3400],
          [39.9010, -3.3440],
          [39.8860, -3.3460],
          [39.8700, -3.3460],
          [39.8550, -3.3440],
          [39.8400, -3.3400],
          [39.8280, -3.3340],
          [39.8180, -3.3260],
          [39.8110, -3.3160],
          [39.8070, -3.3040],
          [39.8060, -3.2920],
          [39.8080, -3.2800],
          [39.8200, -3.2800]
        ]]
      }
    },
    {
      "type": "Feature",
      "id": "kilifi_mp_006",
      "properties": {
        "name": "Chale Island Marine Zone",
        "zone_type": "artisanal_fishing",
        "designation": "Community-Managed Artisanal Fishing Area",
        "area_km2": 48.2,
        "zone_status": "open",
        "status": "active",
        "managing_authority": "County Government of Kilifi / Chale BMU",
        "allowed_activities": ["Artisanal fishing", "Small-scale net fishing", "Hook and line fishing", "Traditional canoe fishing"],
        "restrictions": ["No motorized trawlers", "No beach seines", "No explosives", "No cyanide"],
        "licensing_requirements": ["County fishing license", "BMU membership card"],
        "established_date": "2010-03-01"
      },
      "geometry": {
        "type": "Polygon",
        "coordinates": [[
          [39.5200, -4.4200],
          [39.5400, -4.4150],
          [39.5600, -4.4080],
          [39.5780, -4.3990],
          [39.5920, -4.3880],
          [39.6020, -4.3750],
          [39.6080, -4.3600],
          [39.6100, -4.3440],
          [39.6080, -4.3280],
          [39.6020, -4.3130],
          [39.5930, -4.3000],
          [39.5810, -4.2890],
          [39.5660, -4.2810],
          [39.5490, -4.2760],
          [39.5310, -4.2740],
          [39.5140, -4.2760],
          [39.4980, -4.2810],
          [39.4850, -4.2890],
          [39.4750, -4.3000],
          [39.4680, -4.3130],
          [39.4640, -4.3280],
          [39.4630, -4.3440],
          [39.4650, -4.3600],
          [39.4700, -4.3750],
          [39.4780, -4.3880],
          [39.4890, -4.3990],
          [39.5030, -4.4080],
          [39.5200, -4.4200]
        ]]
      }
    },
    {
      "type": "Feature",
      "id": "kilifi_mp_007",
      "properties": {
        "name": "Kilifi Creek Fishing Zone",
        "zone_type": "artisanal_fishing",
        "designation": "Community Artisanal Fishing Area",
        "area_km2": 28.6,
        "zone_status": "open",
        "status": "active",
        "managing_authority": "County Government of Kilifi / Kilifi BMU",
        "allowed_activities": ["Artisanal fishing", "Net fishing (small mesh)", "Trap fishing", "Crab collection"],
        "restrictions": ["No commercial trawling", "No explosives", "No poison fishing"],
        "licensing_requirements": ["County fishing license", "BMU registration"],
        "established_date": "2008-07-10"
      },
      "geometry": {
        "type": "Polygon",
        "coordinates": [[
          [39.8450, -3.6350],
          [39.8580, -3.6280],
          [39.8720, -3.6200],
          [39.8850, -3.6100],
          [39.8960, -3.5980],
          [39.9040, -3.5850],
          [39.9090, -3.5700],
          [39.9110, -3.5540],
          [39.9090, -3.5380],
          [39.9040, -3.5230],
          [39.8960, -3.5100],
          [39.8850, -3.4980],
          [39.8720, -3.4880],
          [39.8570, -3.4810],
          [39.8410, -3.4770],
          [39.8240, -3.4760],
          [39.8080, -3.4780],
          [39.7940, -3.4830],
          [39.7820, -3.4910],
          [39.7730, -3.5010],
          [39.7670, -3.5140],
          [39.7640, -3.5280],
          [39.7640, -3.5430],
          [39.7670, -3.5580],
          [39.7730, -3.5720],
          [39.7820, -3.5850],
          [39.7940, -3.5970],
          [39.8080, -3.6080],
          [39.8240, -3.6180],
          [39.8450, -3.6350]
        ]]
      }
    },
    {
      "type": "Feature",
      "id": "kilifi_mp_008",
      "properties": {
        "name": "Kamale Reef Conservation Area",
        "zone_type": "coral_garden",
        "designation": "Coral Reef Conservation Zone",
        "area_km2": 18.4,
        "zone_status": "open",
        "status": "active",
        "managing_authority": "KMFRI / County Government of Kilifi",
        "allowed_activities": ["Reef monitoring", "Recreational diving", "Underwater photography"],
        "restrictions": ["No coral collection", "No anchoring on reef", "No fishing within 50m of reef"],
        "licensing_requirements": ["Research permit (if applicable)"],
        "established_date": "2015-11-20"
      },
      "geometry": {
        "type": "Polygon",
        "coordinates": [[
          [39.7600, -3.5900],
          [39.7700, -3.5830],
          [39.7820, -3.5750],
          [39.7950, -3.5660],
          [39.8060, -3.5560],
          [39.8140, -3.5450],
          [39.8190, -3.5330],
          [39.8210, -3.5200],
          [39.8200, -3.5070],
          [39.8160, -3.4950],
          [39.8090, -3.4850],
          [39.7990, -3.4770],
          [39.7870, -3.4710],
          [39.7730, -3.4680],
          [39.7590, -3.4680],
          [39.7450, -3.4710],
          [39.7330, -3.4770],
          [39.7230, -3.4850],
          [39.7160, -3.4950],
          [39.7120, -3.5070],
          [39.7110, -3.5200],
          [39.7130, -3.5330],
          [39.7180, -3.5450],
          [39.7260, -3.5560],
          [39.7370, -3.5660],
          [39.7500, -3.5750],
          [39.7600, -3.5900]
        ]]
      }
    },
    {
      "type": "Feature",
      "id": "kilifi_mp_009",
      "properties": {
        "name": "Tana River Delta Wetland Zone",
        "zone_type": "conservation",
        "designation": "Wetland Conservation Area — Ramsar Site",
        "area_km2": 1200.0,
        "zone_status": "open",
        "status": "active",
        "managing_authority": "Kenya Wildlife Service / NEMA",
        "allowed_activities": ["Bird watching", "Research", "Controlled fishing (artisanal)"],
        "restrictions": ["No industrial fishing", "No wetland drainage", "No pollution discharge"],
        "licensing_requirements": ["NEMA permit", "KWS permit"],
        "established_date": "2012-04-01"
      },
      "geometry": {
        "type": "Polygon",
        "coordinates": [[
          [40.1500, -2.4500],
          [40.2500, -2.4200],
          [40.3500, -2.4000],
          [40.4500, -2.3900],
          [40.5200, -2.3850],
          [40.5800, -2.3850],
          [40.6200, -2.3900],
          [40.6400, -2.4000],
          [40.6400, -2.4200],
          [40.6200, -2.4400],
          [40.5800, -2.4550],
          [40.5200, -2.4650],
          [40.4500, -2.4700],
          [40.3500, -2.4750],
          [40.2500, -2.4750],
          [40.1500, -2.4500]
        ]]
      }
    },
    {
      "type": "Feature",
      "id": "kilifi_mp_010",
      "properties": {
        "name": "Gede Shipwreck Marine Zone",
        "zone_type": "reef_protected",
        "designation": "Reef-Protected Wreck Site",
        "area_km2": 12.3,
        "zone_status": "open",
        "status": "active",
        "managing_authority": "National Museums of Kenya (NMK) / KWS",
        "allowed_activities": ["Recreational diving", "Archaeological research (permitted)"],
        "restrictions": ["No artifact removal", "No anchoring", "No trawling", "No spearfishing near wreck"],
        "licensing_requirements": ["NMK research permit (for diving)"],
        "established_date": "2005-09-15"
      },
      "geometry": {
        "type": "Polygon",
        "coordinates": [[
          [40.1200, -3.3100],
          [40.1300, -3.3040],
          [40.1420, -3.2960],
          [40.1540, -3.2870],
          [40.1640, -3.2760],
          [40.1720, -3.2640],
          [40.1770, -3.2510],
          [40.1790, -3.2370],
          [40.1780, -3.2230],
          [40.1740, -3.2100],
          [40.1670, -3.1990],
          [40.1580, -3.1900],
          [40.1470, -3.1840],
          [40.1340, -3.1800],
          [40.1200, -3.1790],
          [40.1060, -3.1800],
          [40.0930, -3.1840],
          [40.0820, -3.1900],
          [40.0730, -3.1990],
          [40.0670, -3.2100],
          [40.0630, -3.2230],
          [40.0620, -3.2370],
          [40.0640, -3.2510],
          [40.0690, -3.2640],
          [40.0770, -3.2760],
          [40.0870, -3.2870],
          [40.0990, -3.2960],
          [40.1200, -3.3100]
        ]]
      }
    },
    {
      "type": "Feature",
      "id": "kilifi_mp_011",
      "properties": {
        "name": "Malindi Port Shipping Lane",
        "zone_type": "shipping_lane",
        "designation": "Designated Maritime Shipping Corridor",
        "area_km2": 85.0,
        "zone_status": "open",
        "status": "active",
        "managing_authority": "Kenya Ports Authority (KPA)",
        "allowed_activities": ["Commercial shipping", "Maritime navigation"],
        "restrictions": ["No fishing in shipping lane", "No anchoring outside designated areas", "No swimming"],
        "licensing_requirements": ["Maritime navigation permit"],
        "established_date": "1980-01-01"
      },
      "geometry": {
        "type": "Polygon",
        "coordinates": [[
          [40.1000, -3.2000],
          [40.1100, -3.1900],
          [40.1250, -3.1750],
          [40.1400, -3.1580],
          [40.1550, -3.1400],
          [40.1680, -3.1200],
          [40.1780, -3.1000],
          [40.1850, -3.0780],
          [40.1880, -3.0550],
          [40.1850, -3.0320],
          [40.1780, -3.0100],
          [40.1680, -2.9900],
          [40.1550, -2.9730],
          [40.1400, -2.9600],
          [40.1220, -2.9510],
          [40.1020, -2.9460],
          [40.0820, -2.9460],
          [40.0640, -2.9510],
          [40.0480, -2.9600],
          [40.0350, -2.9730],
          [40.0250, -2.9900],
          [40.0180, -3.0100],
          [40.0150, -3.0320],
          [40.0150, -3.0550],
          [40.0180, -3.0780],
          [40.0250, -3.1000],
          [40.0350, -3.1200],
          [40.0480, -3.1400],
          [40.0640, -3.1580],
          [40.0820, -3.1750],
          [40.1000, -3.2000]
        ]]
      }
    },
    {
      "type": "Feature",
      "id": "kilifi_mp_012",
      "properties": {
        "name": "Nyali Beach Recreational Zone",
        "zone_type": "recreational",
        "designation": "Coastal Recreational & Tourism Area",
        "area_km2": 15.8,
        "zone_status": "open",
        "status": "active",
        "managing_authority": "County Government of Kilifi / NEMA",
        "allowed_activities": ["Swimming", "Surfing", "Beach activities", "Kayaking", "Recreational fishing"],
        "restrictions": ["No industrial fishing", "No polluting discharge", "No coral removal"],
        "licensing_requirements": ["None (public access)"],
        "established_date": "2018-01-15"
      },
      "geometry": {
        "type": "Polygon",
        "coordinates": [[
          [39.6800, -4.0500],
          [39.6900, -4.0420],
          [39.7020, -4.0330],
          [39.7150, -4.0230],
          [39.7260, -4.0120],
          [39.7350, -3.9990],
          [39.7410, -3.9850],
          [39.7440, -3.9700],
          [39.7440, -3.9550],
          [39.7410, -3.9400],
          [39.7350, -3.9260],
          [39.7260, -3.9130],
          [39.7150, -3.9020],
          [39.7020, -3.8920],
          [39.6880, -3.8850],
          [39.6730, -3.8810],
          [39.6570, -3.8800],
          [39.6420, -3.8820],
          [39.6280, -3.8870],
          [39.6170, -3.8950],
          [39.6080, -3.9050],
          [39.6020, -3.9170],
          [39.5990, -3.9310],
          [39.5990, -3.9450],
          [39.6020, -3.9600],
          [39.6080, -3.9740],
          [39.6170, -3.9870],
          [39.6280, -3.9990],
          [39.6420, -4.0100],
          [39.6570, -4.0200],
          [39.6800, -4.0500]
        ]]
      }
    },
    {
      "type": "Feature",
      "id": "kilifi_mp_013",
      "properties": {
        "name": "Mombasa Channel Multi-Use Zone",
        "zone_type": "multi_use",
        "designation": "Multi-Purpose Marine Zone",
        "area_km2": 210.0,
        "zone_status": "open",
        "status": "active",
        "managing_authority": "Kenya Ports Authority / County Government of Mombasa",
        "allowed_activities": ["Commercial fishing (regulated)", "Artisanal fishing", "Tourism", "Shipping", "Recreational activities"],
        "restrictions": ["No explosives fishing", "No pollution", "Compliance with all sector regulations"],
        "licensing_requirements": ["Sector-specific licenses required"],
        "established_date": "2000-01-01"
      },
      "geometry": {
        "type": "Polygon",
        "coordinates": [[
          [39.6000, -4.0500],
          [39.6500, -4.0200],
          [39.7000, -3.9900],
          [39.7500, -3.9600],
          [39.8000, -3.9350],
          [39.8500, -3.9150],
          [39.9000, -3.9000],
          [39.9500, -3.8900],
          [40.0000, -3.8850],
          [40.0500, -3.8850],
          [40.1000, -3.8900],
          [40.1300, -3.9000],
          [40.1400, -3.9150],
          [40.1400, -3.9350],
          [40.1300, -3.9550],
          [40.1100, -3.9750],
          [40.0800, -3.9950],
          [40.0500, -4.0150],
          [40.0100, -4.0350],
          [39.9700, -4.0500],
          [39.9200, -4.0600],
          [39.8700, -4.0650],
          [39.8100, -4.0680],
          [39.7500, -4.0680],
          [39.7000, -4.0650],
          [39.6500, -4.0580],
          [39.6000, -4.0500]
        ]]
      }
    }
  ]
}
